*******************************************************************************
Ephemeris / WWW_USER Mon Mar 24 07:24:56 2025 Pasadena, USA      / Horizons    
*******************************************************************************
Target body name: (2018 PN20)                     {source: JPL#3}
Center body name: Earth (399)                     {source: DE441}
Center-site name: Mauna Kea
*******************************************************************************
Start time      : A.D. 2018-Nov-15 03:52:00.0000 UT      
Stop  time      : A.D. 2018-Nov-15 16:20:00.0000 UT      
Step-size       : 1 minutes
*******************************************************************************
Target pole/equ : undefined
Target radii    : undefined                                                    
Center geodetic : 204.5278, 19.8260847, 4.21024   {E-lon(deg),Lat(deg),Alt(km)}
Center cylindric: 204.5278, 6006.35451, 2151.0229 {E-lon(deg),Dxy(km),Dz(km)}
Center pole/equ : ITRF93                          {East-longitude positive}
Center radii    : 6378.137, 6378.137, 6356.752 km {Equator_a, b, pole_c}       
Target primary  : Sun
Vis. interferer : MOON (R_eq= 1737.400) km        {source: DE441}
Rel. light bend : Sun                             {source: DE441}
Rel. lght bnd GM: 1.3271E+11 km^3/s^2                                          
Small-body perts: Yes                             {source: SB441-N16}
Atmos refraction: NO (AIRLESS)
RA format       : HMS
Time format     : CAL 
Calendar mode   : Mixed Julian/Gregorian
RTS-only print  : NO       
EOP file        : eop.250321.p250617                                           
EOP coverage    : DATA-BASED 1962-JAN-20 TO 2025-MAR-21. PREDICTS-> 2025-JUN-16
Units conversion: 1 au= 149597870.700 km, c= 299792.458 km/s, 1 day= 86400.0 s 
Table cut-offs 1: Elevation (-90.0deg=NO ),Airmass (>38.000=NO), Daylight (YES)
Table cut-offs 2: Solar elongation (  0.0,180.0=NO ),Local Hour Angle( 0.0=NO )
Table cut-offs 3: RA/DEC angular rate (     0.0=NO )                           
*******************************************************************************
Initial IAU76/J2000 heliocentric ecliptic osculating elements (au, days, deg.):
  EPOCH=  2458343.5 ! 2018-Aug-13.00 (TDB)         Residual RMS= .1225         
   EC= .3775096637251725   QR= 1.051585063958075   TP= 2458346.3972912203      
   OM= 142.6884316149991   W=  180.4368328240348   IN= 18.91630320954361       
  Equivalent ICRF heliocentric cartesian coordinates (au, au/d):
   X= 8.077039416640637E-01  Y=-6.245728834467501E-01  Z=-2.534674905132982E-01
  VX= 1.177737749455786E-02 VY= 1.576958466977457E-02 VZ=-1.142216194306418E-04
Asteroid physical parameters (km, seconds, rotational period in hours):        
   GM= n.a.                RAD= n.a.               ROTPER= n.a.                
   H= 25.1                 G= .150                 B-V= n.a.                   
                           ALBEDO= n.a.            STYP= n.a.                  
*******************************************************************************
 Date__(UT)__HR:MN     R.A._________(ICRF)_________DEC
******************************************************
$$SOE
 2018-Nov-15 16:10 C   02 36 06.487045 -39 27 17.75969
 2018-Nov-15 16:11 C   02 36 06.469196 -39 27 16.50813
 2018-Nov-15 16:12 C   02 36 06.451372 -39 27 15.25662
 2018-Nov-15 16:13 C   02 36 06.433573 -39 27 14.00513
 2018-Nov-15 16:14 C   02 36 06.415798 -39 27 12.75368
 2018-Nov-15 16:15 C   02 36 06.398048 -39 27 11.50226
 2018-Nov-15 16:16 C   02 36 06.380322 -39 27 10.25088
 2018-Nov-15 16:17 C   02 36 06.362621 -39 27 08.99954
 2018-Nov-15 16:18 C   02 36 06.344944 -39 27 07.74823
 2018-Nov-15 16:19 C   02 36 06.327292 -39 27 06.49696
 2018-Nov-15 16:20 C   02 36 06.309664 -39 27 05.24573
